{
    "links": {
        "self": "http://www.neowsapp.com/rest/v1/neo/3735683?api_key=iIulBulltgU6a56xZRHN4H3l9WmuAYTsLGpBGhQ2"
    },
    "id": "3735683",
    "neo_reference_id": "3735683",
    "name": "(2015 XB2)",
    "designation": "2015 XB2",
    "nasa_jpl_url": "http://ssd.jpl.nasa.gov/sbdb.cgi?sstr=3735683",
    "absolute_magnitude_h": 24.6,
    "estimated_diameter": {
        "kilometers": {
            "estimated_diameter_min": 0.0319561887,
            "estimated_diameter_max": 0.0714562102
        },
        "meters": {
            "estimated_diameter_min": 31.9561886721,
            "estimated_diameter_max": 71.4562101727
        },
        "miles": {
            "estimated_diameter_min": 0.0198566489,
            "estimated_diameter_max": 0.0444008168
        },
        "feet": {
            "estimated_diameter_min": 104.8431420431,
            "estimated_diameter_max": 234.436392583
        }
    },
    "is_potentially_hazardous_asteroid": false,
    "close_approach_data": [
        {
            "close_approach_date": "2015-12-09",
            "close_approach_date_full": "2015-Dec-09 17:28",
            "epoch_date_close_approach": 1449682080000,
            "relative_velocity": {
                "kilometers_per_second": "7.7321991785",
                "kilometers_per_hour": "27835.9170426679",
                "miles_per_hour": "17296.1563424289"
            },
            "miss_distance": {
                "astronomical": "0.0523211304",
                "lunar": "20.3529197256",
                "kilometers": "7827129.663832248",
                "miles": "4863552.8471631024"
            },
            "orbiting_body": "Earth"
        },
        {
            "close_approach_date": "2111-11-10",
            "close_approach_date_full": "2111-Nov-10 13:40",
            "epoch_date_close_approach": 4476606000000,
            "relative_velocity": {
                "kilometers_per_second": "15.3183914749",
                "kilometers_per_hour": "55146.2093095817",
                "miles_per_hour": "34265.7098901676"
            },
            "miss_distance": {
                "astronomical": "0.0836131531",
                "lunar": "32.5255165559",
                "kilometers": "12508349.607743897",
                "miles": "7772328.0386118986"
            },
            "orbiting_body": "Mars"
        }
    ],
    "orbital_data": {
        "orbit_id": "18",
        "orbit_determination_date": "2017-04-06 08:30:14",
        "first_observation_date": "2015-12-04",
        "last_observation_date": "2016-01-03",
        "data_arc_in_days": 30,
        "observations_used": 115,
        "orbit_uncertainty": "7",
        "minimum_orbit_intersection": ".0276913",
        "jupiter_tisserand_invariant": "3.080",
        "epoch_osculation": "2459000.5",
        "eccentricity": ".6196586866085413",
        "semi_major_axis": "2.653728021329737",
        "inclination": "3.577446224272627",
        "ascending_node_longitude": "52.82419044402748",
        "orbital_period": "1579.003316866275",
        "perihelion_distance": "1.009322401016269",
        "perihelion_argument": "17.04547990496973",
        "aphelion_distance": "4.298133641643205",
        "perihelion_time": "2458945.073112928046",
        "mean_anomaly": "12.6368824769185",
        "mean_motion": ".2279919213307696",
        "equinox": "J2000",
        "orbit_class": {
            "orbit_class_type": "APO",
            "orbit_class_description": "Near-Earth asteroid orbits which cross the Earth’s orbit similar to that of 1862 Apollo",
            "orbit_class_range": "a (semi-major axis) > 1.0 AU; q (perihelion) < 1.017 AU"
        }
    },
    "is_sentry_object": false
}